[{"OBJECT_NAME":"GHGSAT-C5","OBJECT_ID":"2022-057N","EPOCH":"2026-03-09T21:50:12.501024","MEAN_MOTION":15.32921902,"ECCENTRICITY":0.00082696,"INCLINATION":97.6522,"RA_OF_ASC_NODE":212.4963,"ARG_OF_PERICENTER":109.8004,"MEAN_ANOMALY":250.413,"EPHEMERIS_TYPE":0,"CLASSIFICATION_TYPE":"U","NORAD_CAT_ID":52744,"ELEMENT_SET_NO":999,"REV_AT_EPOCH":21032,"BSTAR":0.00029214604,"MEAN_MOTION_DOT":9.218e-5,"MEAN_MOTION_DDOT":0},{"OBJECT_NAME":"STARLINK-34151","OBJECT_ID":"2025-110AA","EPOCH":"2026-03-09T06:28:33.128832","MEAN_MOTION":15.3020625,"ECCENTRICITY":0.00011328,"INCLINATION":53.1611,"RA_OF_ASC_NODE":29.032,"ARG_OF_PERICENTER":98.8965,"MEAN_ANOMALY":261.2164,"EPHEMERIS_TYPE":0,"CLASSIFICATION_TYPE":"U","NORAD_CAT_ID":64120,"ELEMENT_SET_NO":999,"REV_AT_EPOCH":4581,"BSTAR":0.0010903078,"MEAN_MOTION_DOT":0.00032078,"MEAN_MOTION_DDOT":0}]
